NORAD_CAT_ID,OBJECT_NAME,OBJECT_TYPE,EPOCH,MEAN_MOTION,ECCENTRICITY,INCLINATION,RA_OF_ASC_NODE,ARG_OF_PERICENTER,MEAN_ANOMALY,BSTAR,MEAN_MOTION_DOT,MEAN_MOTION_DDOT,TLE_LINE0,TLE_LINE1,TLE_LINE2,SEMIMAJOR_AXIS,PERIOD,APOGEE,PERIGEE,DECAYED
56811.0,STARLINK-6063,PAYLOAD,2023-12-31 12:23:16,15.6993005,0.0003606,69.9977,170.9277,264.2196,95.8589,-1.1122e-05,-1.55e-05,0.0,0 STARLINK-6063,1 56811U 23078AW  23365.51615895 -.00001550  00000-0 -11122-4 0  9994,2 56811  69.9977 170.9277 0003606 264.2196  95.8589 15.69930050 33938,6737.234,91.724,361.529,356.67,0.0
56811.0,STARLINK-6063,PAYLOAD,2023-12-31 20:02:01,15.69936365,0.0003372,69.9983,170.0318,263.116,96.9652,2.158e-06,4.7e-07,0.0,0 STARLINK-6063,1 56811U 23078AW  23365.83473393  .00000047  00000-0  21580-5 0  9992,2 56811  69.9983 170.0318 0003372 263.1160  96.9652 15.69936365 33984,6737.216,91.723,361.353,356.809,0.0
56811.0,STARLINK-6063,PAYLOAD,2024-01-01 12:51:17,15.69919925,0.0003066,69.9984,168.061,261.6605,98.4243,1.4165e-05,1.491e-05,0.0,0 STARLINK-6063,1 56811U 23078AW  24001.53562314  .00001491  00000-0  14165-4 0  9993,2 56811  69.9984 168.0610 0003066 261.6605  98.4243 15.69919925 33834,6737.263,91.724,361.194,357.062,0.0
56811.0,STARLINK-6063,PAYLOAD,2024-01-01 18:58:18,15.69914073,0.0003251,69.9985,167.3451,267.7748,92.3075,4.8157e-06,3.66e-06,0.0,0 STARLINK-6063,1 56811U 23078AW  24001.79049696  .00000366  00000-0  48157-5 0  9993,2 56811  69.9985 167.3451 0003251 267.7748  92.3075 15.69914073 34130,6737.28,91.725,361.335,356.955,0.0
56811.0,STARLINK-6063,PAYLOAD,2024-01-01 20:30:04,15.69913329,0.0003299,69.9982,167.1656,269.4033,90.6785,3.6515e-06,2.26e-06,0.0,0 STARLINK-6063,1 56811U 23078AW  24001.85421483  .00000226  00000-0  36515-5 0  9998,2 56811  69.9982 167.1656 0003299 269.4033  90.6785 15.69913329 33883,6737.282,91.725,361.37,356.924,0.0
56811.0,STARLINK-6063,PAYLOAD,2024-01-02 11:47:34,15.6993087,0.0003574,69.9978,165.3737,270.9512,89.1274,1.4339e-06,-4e-07,0.0,0 STARLINK-6063,1 56811U 23078AW  24002.49137260 -.00000040  00000-0  14339-5 0  9991,2 56811  69.9978 165.3737 0003574 270.9512  89.1274 15.69930870 34240,6737.232,91.724,361.505,356.689,0.0
56811.0,STARLINK-6063,PAYLOAD,2024-01-02 13:19:19,15.69931089,0.0003562,69.9983,165.1945,270.6189,89.4599,4.8381e-06,3.69e-06,0.0,0 STARLINK-6063,1 56811U 23078AW  24002.55508792  .00000369  00000-0  48381-5 0  9997,2 56811  69.9983 165.1945 0003562 270.6189  89.4599 15.69931089 33996,6737.231,91.724,361.496,356.696,0.0
56811.0,STARLINK-6063,PAYLOAD,2024-01-02 19:26:20,15.69921518,0.0003497,69.9988,164.4784,270.2017,89.8778,-2.2273e-06,-4.81e-06,0.0,0 STARLINK-6063,1 56811U 23078AW  24002.80996277 -.00000481  00000-0 -22273-5 0  9993,2 56811  69.9988 164.4784 0003497 270.2017  89.8778 15.69921518 34290,6737.259,91.724,361.48,356.768,0.0
56811.0,STARLINK-6063,PAYLOAD,2024-01-02 20:58:05,15.69922238,0.0003456,69.9988,164.2989,267.2148,92.8653,-1.6307e-06,-4.09e-06,0.0,0 STARLINK-6063,1 56811U 23078AW  24002.87367779 -.00000409  00000-0 -16307-5 0  9990,2 56811  69.9988 164.2989 0003456 267.2148  92.8653 15.69922238 34040,6737.256,91.724,361.45,356.793,0.0
56811.0,STARLINK-6063,PAYLOAD,2024-01-03 13:47:21,15.69922104,0.0003771,69.9979,162.3295,274.7598,85.3167,7.5561e-06,6.96e-06,0.0,0 STARLINK-6063,1 56811U 23078AW  24003.57455983  .00000696  00000-0  75561-5 0  9996,2 56811  69.9979 162.3295 0003771 274.7598  85.3167 15.69922104 34152,6737.257,91.724,361.662,356.581,0.0
56811.0,STARLINK-6063,PAYLOAD,2024-01-03 19:54:23,15.69914628,0.0002938,69.9976,161.6121,276.9344,83.1518,1.8369e-06,8e-08,0.0,0 STARLINK-6063,1 56811U 23078AW  24003.82943463  .00000008  00000-0  18369-5 0  9999,2 56811  69.9976 161.6121 0002938 276.9344  83.1518 15.69914628 34457,6737.278,91.725,361.123,357.164,0.0
56811.0,STARLINK-6063,PAYLOAD,2024-01-04 11:11:53,15.69926774,0.0003468,69.9989,159.822,273.8228,86.2572,-9.2125e-06,-1.321e-05,0.0,0 STARLINK-6063,1 56811U 23078AW  24004.46659703 -.00001321  00000-0 -92125-5 0  9994,2 56811  69.9989 159.8220 0003468 273.8228  86.2572 15.69926774 34556,6737.243,91.724,361.445,356.772,0.0
56811.0,STARLINK-6063,PAYLOAD,2024-01-04 12:43:38,15.6993117,0.0004042,69.996,159.6403,276.3041,83.7694,-1.7551e-05,-2.324e-05,0.0,0 STARLINK-6063,1 56811U 23078AW  24004.53031132 -.00002324  00000-0 -17551-4 0  9995,2 56811  69.9960 159.6403 0004042 276.3041  83.7694 15.69931170 34302,6737.231,91.724,361.819,356.373,0.0
56811.0,STARLINK-6063,PAYLOAD,2024-01-04 20:22:24,15.69923422,0.0003196,69.9983,158.7468,259.7205,100.363,-1.0512e-05,-1.476e-05,0.0,0 STARLINK-6063,1 56811U 23078AW  24004.84889827 -.00001476  00000-0 -10512-4 0  9998,2 56811  69.9983 158.7468 0003196 259.7205 100.3630 15.69923422 34356,6737.253,91.724,361.271,356.965,0.0
56811.0,STARLINK-6063,PAYLOAD,2024-01-05 11:39:55,15.69929065,0.000378,69.9978,156.9556,277.579,82.4976,7.8084e-06,7.26e-06,0.0,0 STARLINK-6063,1 56811U 23078AW  24005.48605880  .00000726  00000-0  78084-5 0  9998,2 56811  69.9978 156.9556 0003780 277.5790  82.4976 15.69929065 34716,6737.237,91.724,361.649,356.555,0.0
56811.0,STARLINK-6063,PAYLOAD,2024-01-05 13:11:40,15.69929195,0.0003281,69.9985,156.7768,271.4757,88.6063,4.1704e-06,2.89e-06,0.0,0 STARLINK-6063,1 56811U 23078AW  24005.54977683  .00000289  00000-0  41704-5 0  9991,2 56811  69.9985 156.7768 0003281 271.4757  88.6063 15.69929195 34460,6737.237,91.724,361.312,356.891,0.0
56811.0,STARLINK-6063,PAYLOAD,2024-01-05 19:18:41,15.69922475,0.0003553,69.9982,156.0597,270.6775,89.4014,1.5518e-06,-2.6e-07,0.0,0 STARLINK-6063,1 56811U 23078AW  24005.80464771 -.00000026  00000-0  15518-5 0  9993,2 56811  69.9982 156.0597 0003553 270.6775  89.4014 15.69922475 34765,6737.256,91.724,361.515,356.727,0.0
56811.0,STARLINK-6063,PAYLOAD,2024-01-06 12:07:57,15.6992344,0.0003314,69.9987,154.0901,262.8312,97.2507,1.4927e-05,1.582e-05,0.0,0 STARLINK-6063,1 56811U 23078AW  24006.50552785  .00001582  00000-0  14927-4 0  9993,2 56811  69.9987 154.0901 0003314 262.8312  97.2507 15.69923440 34613,6737.253,91.724,361.351,356.885,0.0
56811.0,STARLINK-6063,PAYLOAD,2024-01-06 19:46:43,15.69922815,0.0003509,69.9979,153.1941,271.4583,88.6211,1.0573e-05,1.059e-05,0.0,0 STARLINK-6063,1 56811U 23078AW  24006.82411144  .00001059  00000-0  10573-4 0  9993,2 56811  69.9979 153.1941 0003509 271.4583  88.6211 15.69922815 34925,6737.255,91.724,361.484,356.756,0.0
56811.0,STARLINK-6063,PAYLOAD,2024-01-07 12:35:59,15.69929037,0.0003073,69.9988,151.2249,266.5831,93.5013,-2.9345e-06,-5.65e-06,0.0,0 STARLINK-6063,1 56811U 23078AW  24007.52499706 -.00000565  00000-0 -29345-5 0  9992,2 56811  69.9988 151.2249 0003073 266.5831  93.5013 15.69929037 34773,6737.237,91.724,361.172,357.032,0.0
56811.0,STARLINK-6063,PAYLOAD,2024-01-07 18:42:59,15.69934893,0.0002953,69.9992,150.508,268.3489,91.7368,-5.8227e-06,-9.13e-06,0.0,0 STARLINK-6063,1 56811U 23078AW  24007.77986045 -.00000913  00000-0 -58227-5 0  9994,2 56811  69.9992 150.5080 0002953 268.3489  91.7368 15.69934893 34812,6737.22,91.724,361.075,357.096,0.0
56811.0,STARLINK-6063,PAYLOAD,2024-01-08 11:32:16,15.69927039,0.0002804,69.9991,148.5381,265.1484,94.9391,-7.949e-06,-1.168e-05,0.0,0 STARLINK-6063,1 56811U 23078AW  24008.48074993 -.00001168  00000-0 -79490-5 0  9991,2 56811  69.9991 148.5381 0002804 265.1484  94.9391 15.69927039 35183,6737.243,91.724,360.997,357.219,0.0
56811.0,STARLINK-6063,PAYLOAD,2024-01-08 13:04:01,15.69925239,0.0003466,69.9983,148.3574,273.9121,86.1679,-7.531e-06,-1.118e-05,0.0,0 STARLINK-6063,1 56811U 23078AW  24008.54446748 -.00001118  00000-0 -75310-5 0  9991,2 56811  69.9983 148.3574 0003466 273.9121  86.1679 15.69925239 34930,6737.248,91.724,361.448,356.778,0.0
56811.0,STARLINK-6063,PAYLOAD,2024-01-08 19:11:02,15.6991988,0.0003013,69.9992,147.6425,268.5723,91.5127,-4.806e-06,-7.9e-06,0.0,0 STARLINK-6063,1 56811U 23078AW  24008.79933734 -.00000790  00000-0 -48060-5 0  9991,2 56811  69.9992 147.6425 0003013 268.5723  91.5127 15.69919880 34970,6737.263,91.724,361.158,357.098,0.0
56811.0,STARLINK-6063,PAYLOAD,2024-01-09 12:00:19,15.69915042,0.0002962,69.9993,145.6732,268.8231,91.2626,-1.0239e-05,-1.443e-05,0.0,0 STARLINK-6063,1 56811U 23078AW  24009.50022510 -.00001443  00000-0 -10239-4 0  9994,2 56811  69.9993 145.6732 0002962 268.8231  91.2626 15.69915042 35089,6737.277,91.725,361.138,357.146,0.0
56811.0,STARLINK-6063,PAYLOAD,2024-01-09 18:07:19,15.69917638,0.0003042,69.9989,144.9562,265.6585,94.4263,-9.7175e-06,-1.38e-05,0.0,0 STARLINK-6063,1 56811U 23078AW  24009.75509072 -.00001380  00000-0 -97175-5 0  9999,2 56811  69.9989 144.9562 0003042 265.6585  94.4263 15.69917638 35124,6737.27,91.725,361.184,357.085,0.0
56811.0,STARLINK-6063,PAYLOAD,2024-01-10 10:56:35,15.69917473,0.0003281,69.9988,142.9834,268.5912,91.4908,1.2252e-05,1.26e-05,0.0,0 STARLINK-6063,1 56811U 23078AW  24010.45596954  .00001260  00000-0  12252-4 0  9990,2 56811  69.9988 142.9834 0003281 268.5912  91.4908 15.69917473 35494,6737.27,91.725,361.346,356.925,0.0
56811.0,STARLINK-6063,PAYLOAD,2024-01-11 11:24:38,15.69920494,0.0002245,70.002,140.1239,241.7875,118.3094,-1.3801e-05,-1.87e-05,0.0,0 STARLINK-6063,1 56811U 23078AW  24011.47544765 -.00001870  00000-0 -13801-4 0  9996,2 56811  70.0020 140.1239 0002245 241.7875 118.3094 15.69920494 35653,6737.261,91.724,360.639,357.614,0.0
56811.0,STARLINK-6063,PAYLOAD,2024-01-11 17:31:38,15.6992771,0.0002036,70.0008,139.4047,254.3257,105.7715,-9.3416e-06,-1.335e-05,0.0,0 STARLINK-6063,1 56811U 23078AW  24011.73030972 -.00001335  00000-0 -93416-5 0  9992,2 56811  70.0008 139.4047 0002036 254.3257 105.7715 15.69927710 35691,6737.241,91.724,360.478,357.734,0.0
56811.0,STARLINK-6063,PAYLOAD,2024-01-12 10:20:54,15.69933167,0.0002741,69.9993,137.4301,260.398,99.6906,7.9757e-06,7.47e-06,0.0,0 STARLINK-6063,1 56811U 23078AW  24012.43118484  .00000747  00000-0  79757-5 0  9991,2 56811  69.9993 137.4301 0002741 260.3980  99.6906 15.69933167 35545,6737.225,91.724,360.937,357.244,0.0
